NORAD_CAT_ID,OBJECT_NAME,OBJECT_TYPE,EPOCH,MEAN_MOTION,ECCENTRICITY,INCLINATION,RA_OF_ASC_NODE,ARG_OF_PERICENTER,MEAN_ANOMALY,BSTAR,MEAN_MOTION_DOT,MEAN_MOTION_DDOT,TLE_LINE0,TLE_LINE1,TLE_LINE2,SEMIMAJOR_AXIS,PERIOD,APOGEE,PERIGEE,DECAYED
53566.0,STARLINK-4576,PAYLOAD,2023-01-29 22:04:20,15.08837677,8.93e-05,53.2185,108.2832,94.1538,265.9556,1.1023e-06,-2.7e-06,0.0,0 STARLINK-4576,1 53566U 22101AR  23029.91967691 -.00000270  00000-0  11023-5 0  9997,2 53566  53.2185 108.2832 0000893  94.1538 265.9556 15.08837677 25822,6917.887,95.438,540.37,539.135,0.0
53566.0,STARLINK-4576,PAYLOAD,2023-01-30 10:47:25,15.08830415,0.0001153,53.2178,105.9038,84.4351,275.6773,1.5136e-05,-4.7e-07,0.0,0 STARLINK-4576,1 53566U 22101AR  23030.44960412 -.00000047  00000-0  15136-4 0  9991,2 53566  53.2178 105.9038 0001153  84.4351 275.6773 15.08830415 25216,6917.91,95.438,540.572,538.977,0.0
53566.0,STARLINK-4576,PAYLOAD,2023-01-30 13:58:11,15.08837974,0.0001007,53.2185,105.3088,81.8439,278.2667,2.1251e-05,5e-07,0.0,0 STARLINK-4576,1 53566U 22101AR  23030.58207957  .00000050  00000-0  21251-4 0  9992,2 53566  53.2185 105.3088 0001007  81.8439 278.2667 15.08837974 25925,6917.887,95.438,540.448,539.055,0.0
53566.0,STARLINK-4576,PAYLOAD,2023-01-30 21:55:07,15.08840492,0.0001019,53.2192,103.8211,83.5229,276.5879,1.502e-05,-4.9e-07,0.0,0 STARLINK-4576,1 53566U 22101AR  23030.91327796 -.00000049  00000-0  15020-4 0  9999,2 53566  53.2192 103.8211 0001019  83.5229 276.5879 15.08840492 25973,6917.879,95.438,540.449,539.039,0.0
53566.0,STARLINK-4576,PAYLOAD,2023-01-31 12:13:35,15.08841076,0.000105,53.2185,101.1463,79.6982,280.4128,5.3622e-05,5.66e-06,0.0,0 STARLINK-4576,1 53566U 22101AR  23031.50943790  .00000566  00000-0  53622-4 0  9996,2 53566  53.2185 101.1463 0001050  79.6982 280.4128 15.08841076 26063,6917.877,95.437,540.468,539.016,0.0
53566.0,STARLINK-4576,PAYLOAD,2023-02-01 04:07:26,15.08838888,0.0001125,53.2185,98.1731,76.3285,283.7832,5.2043e-05,5.41e-06,0.0,0 STARLINK-4576,1 53566U 22101AR  23032.17183862  .00000541  00000-0  52043-4 0  9995,2 53566  53.2185  98.1731 0001125  76.3285 283.7832 15.08838888 25478,6917.884,95.438,540.527,538.971,0.0
53566.0,STARLINK-4576,PAYLOAD,2023-02-01 12:04:21,15.08847941,0.0001206,53.2181,96.6862,75.2835,284.8291,5.5111e-05,5.9e-06,0.0,0 STARLINK-4576,1 53566U 22101AR  23032.50303233  .00000590  00000-0  55111-4 0  9991,2 53566  53.2181  96.6862 0001206  75.2835 284.8291 15.08847941 26215,6917.856,95.437,540.555,538.887,0.0
53566.0,STARLINK-4576,PAYLOAD,2023-02-02 03:58:14,15.08832609,0.0001243,53.2186,93.712,83.2464,276.867,-9.4038e-06,-4.37e-06,0.0,0 STARLINK-4576,1 53566U 22101AR  23033.16544385 -.00000437  00000-0 -94038-5 0  9993,2 53566  53.2186  93.7120 0001243  83.2464 276.8670 15.08832609 25624,6917.903,95.438,540.628,538.908,0.0
53566.0,STARLINK-4576,PAYLOAD,2023-02-02 11:55:09,15.0883319,0.0001313,53.2192,92.2241,90.7011,269.4132,5.276e-05,5.52e-06,0.0,0 STARLINK-4576,1 53566U 22101AR  23033.49664206  .00000552  00000-0  52760-4 0  9995,2 53566  53.2192  92.2241 0001313  90.7011 269.4132 15.08833190 26367,6917.901,95.438,540.675,538.858,0.0
53566.0,STARLINK-4576,PAYLOAD,2023-02-03 08:35:10,15.08838494,0.0001421,53.2186,88.3583,97.5958,262.5195,-6.2851e-05,-1.288e-05,0.0,0 STARLINK-4576,1 53566U 22101AR  23034.35776371 -.00001288  00000-0 -62851-4 0  9999,2 53566  53.2186  88.3583 0001421  97.5958 262.5195 15.08838494 25803,6917.885,95.438,540.733,538.767,0.0
53566.0,STARLINK-4576,PAYLOAD,2023-02-03 11:45:56,15.08841198,0.0001642,53.2188,87.7633,104.0064,256.1111,-4.1315e-05,-9.46e-06,0.0,0 STARLINK-4576,1 53566U 22101AR  23034.49024120 -.00000946  00000-0 -41315-4 0  9994,2 53566  53.2188  87.7633 0001642 104.0064 256.1111 15.08841198 26512,6917.877,95.437,540.878,538.606,0.0
53566.0,STARLINK-4576,PAYLOAD,2023-02-04 11:36:43,15.08842452,0.0001502,53.2182,83.3037,101.7899,258.3262,8.4879e-05,1.063e-05,0.0,0 STARLINK-4576,1 53566U 22101AR  23035.48383731  .00001063  00000-0  84879-4 0  9991,2 53566  53.2182  83.3037 0001502 101.7899 258.3262 15.08842452 25975,6917.873,95.437,540.777,538.699,0.0
53566.0,STARLINK-4576,PAYLOAD,2023-02-04 13:12:06,15.08841626,0.0001524,53.2184,83.0065,103.3985,256.7178,8.7544e-05,1.106e-05,0.0,0 STARLINK-4576,1 53566U 22101AR  23035.55007766  .00001106  00000-0  87544-4 0  9990,2 53566  53.2184  83.0065 0001524 103.3985 256.7178 15.08841626 26671,6917.875,95.437,540.795,538.686,0.0
53566.0,STARLINK-4576,PAYLOAD,2023-02-04 19:33:39,15.0883518,0.0001664,53.22,81.8161,81.82,278.2981,1.03e-05,-1.24e-06,0.0,0 STARLINK-4576,1 53566U 22101AR  23035.81504612 -.00000124  00000-0  10300-4 0  9997,2 53566  53.2200  81.8161 0001664  81.8200 278.2981 15.08835180 26026,6917.895,95.438,540.911,538.609,0.0
53566.0,STARLINK-4576,PAYLOAD,2023-02-05 13:02:52,15.08861174,0.0001498,53.2187,78.544,114.7742,245.3407,0.00020089,2.912e-05,0.0,0 STARLINK-4576,1 53566U 22101AR  23036.54365987  .00002912  00000-0  20089-3 0  9998,2 53566  53.2187  78.5440 0001498 114.7742 245.3407 15.08861174 26137,6917.816,95.436,540.717,538.644,0.0
53566.0,STARLINK-4576,PAYLOAD,2023-02-06 03:21:22,15.08838754,0.0001763,53.2192,75.8699,108.9629,251.1555,-6.7261e-05,-1.358e-05,0.0,0 STARLINK-4576,1 53566U 22101AR  23037.13984389 -.00001358  00000-0 -67261-4 0  9996,2 53566  53.2192  75.8699 0001763 108.9629 251.1555 15.08838754 26220,6917.884,95.438,540.969,538.53,0.0
53566.0,STARLINK-4576,PAYLOAD,2023-02-06 11:18:18,15.08832228,0.0001267,53.2192,74.3836,93.6088,266.5049,-0.00010631,-1.979e-05,0.0,0 STARLINK-4576,1 53566U 22101AR  23037.47105118 -.00001979  00000-0 -10631-3 0  9995,2 53566  53.2192  74.3836 0001267  93.6088 266.5049 15.08832228 26278,6917.904,95.438,540.646,538.893,0.0
53566.0,STARLINK-4576,PAYLOAD,2023-02-06 19:15:14,15.0883405,0.0001429,53.2197,72.8961,80.0008,280.1145,-4.5584e-05,-1.013e-05,0.0,0 STARLINK-4576,1 53566U 22101AR  23037.80224956 -.00001013  00000-0 -45584-4 0  9999,2 53566  53.2197  72.8961 0001429  80.0008 280.1145 15.08834050 27014,6917.899,95.438,540.752,538.775,0.0
53566.0,STARLINK-4576,PAYLOAD,2023-02-07 03:12:09,15.08833482,0.0001012,53.2181,71.4098,84.3947,275.716,5.9357e-05,6.57e-06,0.0,0 STARLINK-4576,1 53566U 22101AR  23038.13344574  .00000657  00000-0  59357-4 0  9999,2 53566  53.2181  71.4098 0001012  84.3947 275.7160 15.08833482 26373,6917.9,95.438,540.465,539.065,0.0
53566.0,STARLINK-4576,PAYLOAD,2023-02-07 11:09:04,15.08858095,0.0001318,53.2194,69.9228,96.3924,263.7218,-1.6332e-05,-5.48e-06,0.0,0 STARLINK-4576,1 53566U 22101AR  23038.46463277 -.00000548  00000-0 -16332-4 0  9994,2 53566  53.2194  69.9228 0001318  96.3924 263.7218 15.08858095 26425,6917.825,95.436,540.602,538.778,0.0
53566.0,STARLINK-4576,PAYLOAD,2023-02-08 10:59:52,15.0883582,0.0001422,53.2195,65.4628,90.0072,270.1083,0.00013455,1.854e-05,0.0,0 STARLINK-4576,1 53566U 22101AR  23039.45824285  .00001854  00000-0  13455-3 0  9995,2 53566  53.2195  65.4628 0001422  90.0072 270.1083 15.08835820 26571,6917.893,95.438,540.742,538.774,0.0
53566.0,STARLINK-4576,PAYLOAD,2023-02-08 18:56:48,15.08827059,0.0001512,53.2189,63.9765,86.6849,273.4316,-1.1179e-05,-4.66e-06,0.0,0 STARLINK-4576,1 53566U 22101AR  23039.78945562 -.00000466  00000-0 -11179-4 0  9995,2 53566  53.2189  63.9765 0001512  86.6849 273.4316 15.08827059 26628,6917.92,95.438,540.831,538.739,0.0
53566.0,STARLINK-4576,PAYLOAD,2023-02-09 07:39:53,15.08841599,0.0001551,53.2202,61.5978,87.3754,272.7416,-5.1274e-05,-1.104e-05,0.0,0 STARLINK-4576,1 53566U 22101AR  23040.31937016 -.00001104  00000-0 -51274-4 0  9991,2 53566  53.2202  61.5978 0001551  87.3754 272.7416 15.08841599 27393,6917.876,95.437,540.813,538.668,0.0
53566.0,STARLINK-4576,PAYLOAD,2023-02-10 02:44:31,15.08833592,0.0001391,53.2202,58.0314,83.1007,277.0144,3.5117e-05,2.71e-06,0.0,0 STARLINK-4576,1 53566U 22101AR  23041.11425407  .00000271  00000-0  35117-4 0  9996,2 53566  53.2202  58.0314 0001391  83.1007 277.0144 15.08833592 27519,6917.9,95.438,540.727,538.803,0.0
53566.0,STARLINK-4576,PAYLOAD,2023-02-10 07:30:40,15.08839829,0.0001342,53.2201,57.1387,95.2111,264.9035,7.4042e-05,8.91e-06,0.0,0 STARLINK-4576,1 53566U 22101AR  23041.31296869  .00000891  00000-0  74042-4 0  9994,2 53566  53.2201  57.1387 0001342  95.2111 264.9035 15.08839829 27540,6917.881,95.438,540.674,538.818,0.0
53566.0,STARLINK-4576,PAYLOAD,2023-02-10 23:24:32,15.08836135,0.0001417,53.2199,54.1657,87.2225,272.8929,9.0783e-05,1.157e-05,0.0,0 STARLINK-4576,1 53566U 22101AR  23041.97537157  .00001157  00000-0  90783-4 0  9990,2 53566  53.2199  54.1657 0001417  87.2225 272.8929 15.08836135 26954,6917.892,95.438,540.737,538.777,0.0
53566.0,STARLINK-4576,PAYLOAD,2023-02-11 12:07:35,15.08860299,0.0001258,53.219,51.7844,99.9916,260.1218,0.00019303,2.787e-05,0.0,0 STARLINK-4576,1 53566U 22101AR  23042.50526993  .00002787  00000-0  19303-3 0  9994,2 53566  53.2190  51.7844 0001258  99.9916 260.1218 15.08860299 27721,6917.818,95.436,540.554,538.813,0.0
53566.0,STARLINK-4576,PAYLOAD,2023-02-12 07:12:14,15.08843414,0.0001834,53.2197,48.2193,103.7848,256.3348,2.4698e-05,1.05e-06,0.0,0 STARLINK-4576,1 53566U 22101AR  23043.30016894  .00000105  00000-0  24698-4 0  9993,2 53566  53.2197  48.2193 0001834 103.7848 256.3348 15.08843414 27152,6917.87,95.437,541.004,538.466,0.0
53566.0,STARLINK-4576,PAYLOAD,2023-02-12 16:44:33,15.08839925,0.0001566,53.2201,46.4355,114.5768,245.5387,-5.7485e-05,-1.203e-05,0.0,0 STARLINK-4576,1 53566U 22101AR  23043.69761271 -.00001203  00000-0 -57485-4 0  9993,2 53566  53.2201  46.4355 0001566 114.5768 245.5387 15.08839925 27213,6917.881,95.438,540.829,538.662,0.0
53566.0,STARLINK-4576,PAYLOAD,2023-02-13 00:41:30,15.08833007,0.0001436,53.2205,44.9474,107.6863,252.4286,-0.00013183,-2.385e-05,0.0,0 STARLINK-4576,1 53566U 22101AR  23044.02882138 -.00002385  00000-0 -13183-3 0  9995,2 53566  53.2205  44.9474 0001436 107.6863 252.4286 15.08833007 27262,6917.902,95.438,540.76,538.773,0.0
